ONEWEB-0056             
1 45159U 20008AE  25148.60363847 -.00000170  00000+0 -52297-3 0  9998
2 45159  87.8805 112.9457 0002009  82.5291 277.6064 13.10372537258570
ONEWEB-0057             
1 45160U 20008AF  25148.61108293 -.00000494  00000+0 -14522-2 0  9990
2 45160  87.8810 112.9564 0002009  78.4067 281.7286 13.10370544258479
ONEWEB-0058             
1 45161U 20008AG  25148.59795360  .00000157  00000+0  41269-3 0  9998
2 45161  87.8800 112.9734 0001943  86.9551 273.1798 13.10369146258059
ONEWEB-0059             
1 45162U 20008AH  25148.59450063  .00000296  00000+0  81281-3 0  9999
2 45162  87.8806 112.9700 0002005  87.2175 272.9182 13.10370231257954
ONEWEB-0062             
1 45163U 20008AJ  25148.62020138 -.00000567  00000+0 -16600-2 0  9995
2 45163  87.8811 112.9453 0002259  91.5993 268.5393 13.10372410257825
ONEWEB-0065             
1 45164U 20008AK  25148.59947444 -.00000011  00000+0 -67284-4 0  9990
2 45164  87.8810 112.9712 0001999  79.3640 280.7712 13.10369839257514
ONEWEB-0066             
1 45424U 20020A   25148.61098799  .00000522  00000+0  14358-2 0  9993
2 45424  87.8833  97.7155 0001650  80.5545 279.5770 13.11417779252288
ONEWEB-0067             
1 45425U 20020B   25148.57209943 -.00000312  00000+0 -91751-3 0  9996
2 45425  87.8820  97.6418 0001837  77.5455 282.5878 13.11414625252324
